FLOCK 3P-56             
1 42042U 17008CY  18029.44068178  .00002072  00000-0  87492-4 0  9991
2 42042  97.4683  95.2579 0008528 138.5313 221.6573 15.24379855 52782
FLOCK 3P-81             
1 42043U 17008CZ  18029.79173921  .00001087  00000-0  47934-4 0  9995
2 42043  97.4708  95.5390 0009750 120.1522 240.0683 15.23901697 52211
FLOCK 3P-87             
1 42044U 17008DA  18029.47563869  .00002799  00000-0  11894-3 0  9991
2 42044  97.4708  95.1779 0009952 118.7566 241.4672 15.23848635 52310
FLOCK 3P-29             
1 42045U 17008DB  18029.80525082  .00002714  00000-0  11535-3 0  9993
2 42045  97.4690  95.4203 0009671 115.2477 244.9764 15.23881706 52212
FLOCK 3P-82             
1 42046U 17008DC  18029.46809016  .00002017  00000-0  86032-4 0  9999
2 42046  97.4709  95.1963 0009911 119.4931 240.7296 15.24057032 52214
FLOCK 3P-78             
1 42047U 17008DD  18029.47409783  .00001479  00000-0  64256-4 0  9993
2 42047  97.4708  95.1928 0009836 118.7784 241.4442 15.23858600 52141
FLOCK 3P-74             
1 42048U 17008DE  18029.48472257  .00002608  00000-0  11102-3 0  9997
2 42048  97.4713  95.1906 0010146 119.5742 240.6507 15.23852546 52149
FLOCK 3P-31             
1 42049U 17008DF  18029.35477488  .00002796  00000-0  11881-3 0  9997
2 42049  97.4691  94.9524 0009732 117.6925 242.5300 15.23855585 51584
FLOCK 3P-83             
1 42050U 17008DG  18029.35601513  .00002609  00000-0  11107-3 0  9991
2 42050  97.4709  95.0400 0010007 120.7383 239.4841 15.23851508 52858
FLOCK 3P-72             
1 42051U 17008DH  18029.79829743  .00000618  00000-0  28748-4 0  9995
2 42051  97.4714  95.5457 0009611 118.4852 241.7354 15.23661033 50514
LEMUR-2-REDFERN-GOES    
1 42059U 98067LA  18029.36063784  .00021312  00000-0  19358-3 0  9995
2 42059  51.6368 334.8507 0006716  68.6558 291.5154 15.67912820 51373
LEMUR-2-TRUTNA          
1 42067U 98067LC  18029.27046342  .00056068  00000-0  27604-3 0  9994
2 42067  51.6425 323.6727 0004968  91.0309 269.1262 15.81571709 51348
LEMUR-2-AUSTINTACIOUS   
1 42068U 98067LD  18029.28956968  .00027098  00000-0  22225-3 0  9995
2 42068  51.6374 332.8725 0006119  63.4748 296.6876 15.70252202 51328
LEMUR-2-TRUTNAHD        
1 42069U 98067LE  18029.41174850  .00020756  00000-0  18234-3 0  9992
2 42069  51.6378 333.7169 0006086  68.6113 291.5532 15.68758641 51374
HAVELSAT                
1 42700U 98067LH  18029.36969158  .00015605  00000-0  16405-3 0  9996
2 42700  51.6385 340.9433 0005786  88.6538 271.5119 15.64506044 40244
SOMP 2                  
1 42701U 98067LJ  18029.48522755  .00016146  00000-0  17322-3 0  9998
2 42701  51.6382 340.9647 0005790  88.6131 271.5527 15.63955637 40241
COLUMBIA                
1 42702U 98067LK  18029.66179315  .00169473  00000-0  63742-3 0  9998
2 42702  51.6301 326.9881 0006321 116.9294 243.2356 15.86764899 40376
SGSAT                   
1 42703U 98067LL  18029.30101129  .00059325  00000-0  38893-3 0  9991
2 42703  51.6350 334.3986 0003438  76.4728 283.6654 15.75167888 40235
CXBN-2                  
1 42704U 98067LM  18029.22853137  .00016633  00000-0  17719-3 0  9995
2 42704  51.6388 342.2581 0002492  49.6259 310.4953 15.64121220 40134
ICECUBE                 
1 42705U 98067LN  18029.29387049  .00029570  00000-0  27241-3 0  9992
2 42705  51.6423 339.7349 0002549  51.3063 308.8161 15.67375853 40233
PHOENIX                 
1 42706U 98067LP  18029.28174977  .00014483  00000-0  15683-3 0  9990
2 42706  51.6384 341.8594 0001953  65.6658 294.4541 15.63829878 40130
X-CUBESAT               
1 42707U 98067LQ  18029.31388566  .00017448  00000-0  18211-3 0  9990
2 42707  51.6363 341.2976 0002117  67.9328 292.1891 15.64601951 40132
QBEE50-LTU-OC           
1 42708U 98067LR  18029.33557499  .00016443  00000-0  17438-3 0  9990
2 42708  51.6381 341.4539 0002165  66.4789 293.6434 15.64245825 40096
ALTAIR PATHFINDER       
1 42711U 98067LS  18029.47357303  .00009750  00000-0  12066-3 0  9996
2 42711  51.6383 343.8840 0004330  33.0967 327.0297 15.60809741 39789
SHARC                   
1 42712U 98067LT  18029.72132731  .00008728  00000-0  11246-3 0  9994
2 42712  51.6403 343.3165 0002734  45.8797 314.2421 15.59898680 40053
ZA-AEROSAT              
1 42713U 98067LU  18029.33361720  .00014489  00000-0  16363-3 0  9990
2 42713  51.6375 342.9504 0002557  36.6523 323.4646 15.62744971 39788
LINK                    
1 42714U 98067LV  18029.38438743  .00027965  00000-0  25843-3 0  9992
2 42714  51.6351 339.5017 0002744  48.7050 311.4182 15.67329605 39949
CSUNSAT 1               
1 42715U 98067LW  18029.45102568  .00014267  00000-0  15973-3 0  9998
2 42715  51.6387 342.2393 0004219  26.5892 333.5318 15.62980914 39806
UPSAT                   
1 42716U 98067LX  18029.41222175  .00023096  00000-0  22418-3 0  9994
2 42716  51.6375 339.7195 0004428  90.3302 269.8201 15.66220407 39969
SPACECUBE               
1 42717U 98067LY  18029.29230459  .00016905  00000-0  17978-3 0  9991
2 42717  51.6373 341.9189 0004391  89.3724 270.7774 15.64145823 39165
HOOPOE                  
1 42718U 98067LZ  18029.28685497  .00019264  00000-0  19582-3 0  9991
2 42718  51.6381 341.1339 0004366  87.4545 272.6950 15.65188147 39171
CHALLENGER              
1 42721U 98067MA  18029.34666753  .00033857  00000-0  28935-3 0  9992
2 42721  51.6360 338.4979 0006545  76.2084 283.9641 15.69126552 38915
NJUST-1                 
1 42722U 98067MB  18029.77345163  .00012712  00000-0  14757-3 0  9993
2 42722  51.6386 341.3902 0007027  74.6622 285.5149 15.62148697 38917
UNSW-ECO                
1 42723U 98067MC  18029.38447605  .00020875  00000-0  21058-3 0  9996
2 42723  51.6391 341.0472 0006580  73.3411 286.8307 15.65308866 38861
DUTHSAT                 
1 42724U 98067MD  18029.39288443  .00031437  00000-0  27650-3 0  9991
2 42724  51.6368 338.8262 0005902  77.8146 282.3512 15.68468221 38817
LILACSAT-1              
1 42725U 98067ME  18029.77903745  .00015594  00000-0  17187-3 0  9993
2 42725  51.6385 340.6788 0006082  77.0572 283.1101 15.63292361 38836
NSIGHT-1                
1 42726U 98067MF  18029.33845226  .00007264  00000-0  97086-4 0  9997
2 42726  51.6401 346.0041 0006520  76.4951 283.6768 15.59215931 38724
SNUSAT-1                
1 42727U 98067MG  18029.33529898  .00015739  00000-0  17392-3 0  9999
2 42727  51.6369 342.9385 0007305  41.2302 318.9243 15.63209036 38720
QBITO                   
1 42728U 98067MH  18029.32493128  .00017538  00000-0  18648-3 0  9999
2 42728  51.6401 342.1719 0003845  80.9198 279.2231 15.64120675 38570
AALTO-2                 
1 42729U 98067MJ  18029.44805793  .00017659  00000-0  18697-3 0  9996
2 42729  51.6384 341.4707 0003801  80.9143 279.2282 15.64224851 38603
SUSAT                   
1 42730U 98067MK  18029.29166713  .00016546  00000-0  17935-3 0  9991
2 42730  51.6379 342.6681 0003859  77.9649 282.1778 15.63677263 38569
I-INSPIRE II            
1 42731U 98067ML  18029.29362162  .00023382  00000-0  23159-3 0  9999
2 42731  51.6373 341.1567 0006251  32.0537 328.0837 15.65694730 38632
POLYITAN-2-SAU          
1 42732U 98067MM  18029.30375758  .00017174  00000-0  18045-3 0  9997
2 42732  51.6379 341.9841 0006391  29.6381 330.4975 15.64429738 38628
SNUSAT-1B               
1 42733U 98067MN  18029.48478779  .00016659  00000-0  18052-3 0  9999
2 42733  51.6380 341.6989 0006507  31.9824 328.1564 15.63667776 38643
EXALTA-1                
1 42734U 98067MP  18029.29924012  .00022935  00000-0  22709-3 0  9993
2 42734  51.6365 341.1933 0007803  52.5190 307.6514 15.65703541 38589
AOXIANG-1               
1 42735U 98067MQ  18029.82359524  .00013039  00000-0  15018-3 0  9993
2 42735  51.6379 340.9640 0007508  71.7854 288.3957 15.62322380 40055
BEEAGLESAT              
1 42736U 98067MR  18029.46302846  .00015504  00000-0  17256-3 0  9994
2 42736  51.6375 342.3037 0007343  69.9750 290.2035 15.63037256 38691
ATLANTIS                
1 42737U 98067MS  18029.27155335  .00098369  00000-0  50727-3 0  9993
2 42737  51.6287 332.6478 0006498  89.1249 271.0497 15.80329496 38690
LEMUR-2-ANGELA          
1 42752U 17019B   18029.55313304  .00002116  00000-0  87695-4 0  9991
2 42752  51.6421  35.4677 0010929  72.4963 287.7210 15.28557385 35908
LEMUR-2-JENNYBARNA      
1 42753U 17019C   18029.45598046  .00000815  00000-0  41172-4 0  9993
2 42753  51.6414  35.5790 0010927  71.4349 288.7817 15.28968331 35847
LEMUR-2-ROBMOORE        
1 42754U 17019D   18029.49918450  .00001562  00000-0  68240-4 0  9998
2 42754  51.6418  35.8525 0010945  74.9054 285.3136 15.28474561 35879
LEMUR-2-SPIROVISION     
1 42755U 17019E   18029.47060565  .00002049  00000-0  84518-4 0  9999
2 42755  51.6417  35.6650 0010861  74.0069 286.2106 15.28876491 35763
UCLSAT                  
1 42765U 17036A   18029.39006287  .00001178  00000-0  55428-4 0  9991
2 42765  97.4210  91.3633 0011504 195.5216 164.5669 15.21469738 34194
LITUANICASAT-2          
1 42768U 17036D   18029.19596747  .00001837  00000-0  86319-4 0  9992
2 42768  97.4219  90.8719 0015919 187.5275 172.5724 15.20771884 33439
LEMUR-2-SHAINAJOHL      
1 42771U 17036G   18029.45245717  .00001322  00000-0  63237-4 0  9996
2 42771  97.4214  91.1344 0015087 185.6308 174.4760 15.20651329 33418
LEMUR-2-XUENITERENCE    
1 42772U 17036H   18029.44603186  .00001346  00000-0  64232-4 0  9996
2 42772  97.4213  91.1419 0014727 185.2318 174.8766 15.20697132 33410
LEMUR-2-LUCYBRYCE       
1 42773U 17036J   18029.36028598  .00001691  00000-0  79365-4 0  9992
2 42773  97.4219  91.1087 0014597 184.8305 175.2792 15.20930575 33408
LEMUR-2-KUNGFOO         
1 42774U 17036K   18029.69937277  .00001245  00000-0  59541-4 0  9991
2 42774  97.4215  91.4212 0014530 183.8353 176.2774 15.20767904 33446
AALTO-1                 
1 42775U 17036L   18029.44811077  .00000777  00000-0  38666-4 0  9998
2 42775  97.4207  91.1350 0014204 183.6618 176.4516 15.20488764 33415
